FENGYUN 1C DEB          
1 36194U 99025DTT 17343.94684130  .00004220  00000-0  62281-3 0  9991
2 36194  99.0326 255.3441 0027069 122.8582 237.5235 14.75684705522777
